NORAD_CAT_ID,OBJECT_NAME,OBJECT_TYPE,EPOCH,MEAN_MOTION,ECCENTRICITY,INCLINATION,RA_OF_ASC_NODE,ARG_OF_PERICENTER,MEAN_ANOMALY,BSTAR,MEAN_MOTION_DOT,MEAN_MOTION_DDOT,TLE_LINE0,TLE_LINE1,TLE_LINE2,SEMIMAJOR_AXIS,PERIOD,APOGEE,PERIGEE,DECAYED
51886.0,STARLINK-3565,PAYLOAD,2022-09-09 22:00:00,15.08839161,0.0001484,53.2175,330.7706,58.07899999999999,249.9747,-0.00031127,-5.238e-05,0.0,0 STARLINK-3565,1 51886U 22022AL  22252.91667824 -.00005238  00000-0 -31127-3 0  9999,2 51886  53.2175 330.7706 0001484  58.0790 249.9747 15.08839161  1303,6917.8830000000025,95.438,540.775,538.721,0.0
51886.0,STARLINK-3565,PAYLOAD,2022-09-10 06:00:02,15.08836626,0.0001393,53.2177,329.2736,74.9526,244.7572,7.518e-05,9.09e-06,0.0,0 STARLINK-3565,1 51886U 22022AL  22253.25002315  .00000909  00000-0  75180-4 0  9991,2 51886  53.2177 329.2736 0001393  74.9526 244.7572 15.08836626 30544,6917.891,95.438,540.719,538.7919999999998,0.0
51886.0,STARLINK-3565,PAYLOAD,2022-09-10 14:00:01,15.08808931,0.0001588999999999,53.2176,327.7935,60.1559,271.1442,0.0020488,0.00032441,0.0,0 STARLINK-3565,1 51886U 22022AL  22253.58334491  .00032441  00000-0  20488-2 0  9995,2 51886  53.2176 327.7935 0001589  60.1559 271.1442 15.08808931 30590,6917.975,95.44,540.94,538.741,0.0
51886.0,STARLINK-3565,PAYLOAD,2022-09-10 22:00:00,15.08849833,0.0001449,53.2172,326.2955,62.1248,280.7449,-0.0026044,-0.00041509,0.0,0 STARLINK-3565,1 51886U 22022AL  22253.91667824 -.00041509  00000-0 -26044-2 0  9992,2 51886  53.2172 326.2955 0001449  62.1248 280.7449 15.08849833  1300,6917.85,95.437,540.7180000000002,538.7130000000002,0.0
51886.0,STARLINK-3565,PAYLOAD,2022-09-11 06:00:00,15.08832839,0.0001413,53.2172,324.7992,66.1357,288.3303,-0.00017835,-3.125e-05,0.0,0 STARLINK-3565,1 51886U 22022AL  22254.25001157 -.00003125  00000-0 -17835-3 0  9992,2 51886  53.2172 324.7992 0001413  66.1357 288.3303 15.08832839 30695,6917.901999999999,95.438,540.745,538.79,0.0
51886.0,STARLINK-3565,PAYLOAD,2022-09-11 14:00:01,15.08813139,0.0001524,53.217,323.3046,56.5912,309.4669,0.002673,0.00042478,0.0,0 STARLINK-3565,1 51886U 22022AL  22254.58334491  .00042478  00000-0  26730-2 0  9993,2 51886  53.2170 323.3046 0001524  56.5912 309.4669 15.08813139  1309,6917.962,95.439,540.882,538.773,0.0
51886.0,STARLINK-3565,PAYLOAD,2022-09-11 22:00:00,15.08853713,0.0001385999999999,53.2167,321.8067,58.6722,318.9635,-0.0020452,-0.00032702,0.0,0 STARLINK-3565,1 51886U 22022AL  22254.91667824 -.00032702  00000-0 -20452-2 0  9995,2 51886  53.2167 321.8067 0001386  58.6722 318.9635 15.08853713  1309,6917.8380000000025,95.437,540.6619999999998,538.745,0.0
51886.0,STARLINK-3565,PAYLOAD,2022-09-12 14:00:01,15.08815942,0.0001509,53.2167,318.8153,52.484,348.346,0.0030399999999999,0.00048394,0.0,0 STARLINK-3565,1 51886U 22022AL  22255.58334491  .00048394  00000-0  30400-2 0  9996,2 51886  53.2167 318.8153 0001509  52.4840 348.3460 15.08815942 30904,6917.954000000002,95.439,540.863,538.775,0.0
51886.0,STARLINK-3565,PAYLOAD,2022-09-12 22:00:00,15.0885465,0.0001448,53.2167,317.3172,57.056,355.3659,-0.002353,-0.00037556,0.0,0 STARLINK-3565,1 51886U 22022AL  22255.91667824 -.00037556  00000-0 -23530-2 0  9998,2 51886  53.2167 317.3172 0001448  57.0560 355.3659 15.08854650  1300,6917.8359999999975,95.437,540.702,538.6990000000002,0.0
51886.0,STARLINK-3565,PAYLOAD,2022-09-13 06:00:00,15.0889289,0.0001513,53.217,315.8131,60.3499,3.6608,-0.0104319999999999,-0.0016282,0.0,0 STARLINK-3565,1 51886U 22022AL  22256.25001157 -.00162820  00000-0 -10432-1 0  9996,2 51886  53.2170 315.8131 0001513  60.3499   3.6608 15.08892890 31008,6917.719,95.434,540.63,538.5369999999998,0.0
51886.0,STARLINK-3565,PAYLOAD,2022-09-13 14:00:01,15.08766965,0.0001571,53.2174,314.3141,49.8752,25.7268,0.0068926999999999,0.00110919,0.0,0 STARLINK-3565,1 51886U 22022AL  22256.58334491  .00110919  00000-0  68927-2 0  9995,2 51886  53.2174 314.3141 0001571  49.8752  25.7268 15.08766965  1305,6918.104,95.442,541.055,538.882,0.0
51886.0,STARLINK-3565,PAYLOAD,2022-09-13 16:00:00,15.088285199999998,0.0001558,53.2171,313.9385,47.7415,120.7274,0.00095431,0.00014928,0.0,0 STARLINK-3565,1 51886U 22022AL  22256.66667824  .00014928  00000-0  95431-3 0  9997,2 51886  53.2171 313.9385 0001558  47.7415 120.7274 15.08828520 31060,6917.915,95.438,540.8580000000002,538.703,0.0
51886.0,STARLINK-3565,PAYLOAD,2022-09-13 22:00:00,15.08815802,0.0001460999999999,53.217,312.8272,55.4633,31.7373,0.00072405,0.00011246,0.0,0 STARLINK-3565,1 51886U 22022AL  22256.91667824  .00011246  00000-0  72405-3 0  9991,2 51886  53.2170 312.8272 0001461  55.4633  31.7373 15.08815802  1307,6917.954000000002,95.439,540.83,538.809,0.0
51886.0,STARLINK-3565,PAYLOAD,2022-09-14 14:00:01,15.08848821,0.0001655,53.2171,309.8312,49.1511,61.2133,-0.0019324,-0.00030918,0.0,0 STARLINK-3565,1 51886U 22022AL  22257.58334491 -.00030918  00000-0 -19324-2 0  9995,2 51886  53.2171 309.8312 0001655  49.1511  61.2133 15.08848821  1308,6917.853,95.437,540.863,538.5740000000002,0.0
51886.0,STARLINK-3565,PAYLOAD,2022-09-14 22:00:00,15.08845605,0.0001543,53.2173,308.3346,56.3913,65.5689,-0.0015753,-0.00025275,0.0,0 STARLINK-3565,1 51886U 22022AL  22257.91667824 -.00025275  00000-0 -15753-2 0  9993,2 51886  53.2173 308.3346 0001543  56.3913  65.5689 15.08845605  1303,6917.863,95.437,540.7959999999998,538.661,0.0
51886.0,STARLINK-3565,PAYLOAD,2022-09-15 14:00:01,15.08815517,0.0001747,53.2171,305.347,52.3858,92.7571,0.0036125999999999,0.00057638,0.0,0 STARLINK-3565,1 51886U 22022AL  22258.58334491  .00057638  00000-0  36126-2 0  9991,2 51886  53.2171 305.3470 0001747  52.3858  92.7571 15.08815517  1307,6917.955,95.439,541.029,538.612,0.0
51886.0,STARLINK-3565,PAYLOAD,2022-09-15 19:43:08,15.08831027,0.0001583,53.218,304.277,56.4381,303.6762,9.6945e-06,-1.34e-06,0.0,0 STARLINK-3565,1 51886U 22022AL  22258.82162635 -.00000134  00000-0  96945-5 0  9995,2 51886  53.2180 304.2770 0001583  56.4381 303.6762 15.08831027 31394,6917.908,95.438,540.868,538.678,0.0
51886.0,STARLINK-3565,PAYLOAD,2022-09-16 03:40:03,15.08839752,0.0001569,53.2176,302.7905,57.2999,302.8144,0.0001402,1.944e-05,0.0,0 STARLINK-3565,1 51886U 22022AL  22259.15281634  .00001944  00000-0  14020-3 0  9994,2 51886  53.2176 302.7905 0001569  57.2999 302.8144 15.08839752 31444,6917.880999999999,95.438,540.832,538.661,0.0
51886.0,STARLINK-3565,PAYLOAD,2022-09-16 10:01:36,15.08832877,0.0001526,53.2187,301.5972,63.1184,296.9964,0.00016677,2.367e-05,0.0,0 STARLINK-3565,1 51886U 22022AL  22259.41778042  .00002367  00000-0  16677-3 0  9997,2 51886  53.2187 301.5972 0001526  63.1184 296.9964 15.08832877 31480,6917.901999999999,95.438,540.823,538.711,0.0
51886.0,STARLINK-3565,PAYLOAD,2022-09-17 09:52:24,15.08822851,0.0001709,53.2175,297.1393,57.6026,302.5132,-4.9927e-06,-3.67e-06,0.0,0 STARLINK-3565,1 51886U 22022AL  22260.41139628 -.00000367  00000-0 -49927-5 0  9996,2 51886  53.2175 297.1393 0001709  57.6026 302.5132 15.08822851 31639,6917.933000000001,95.439,540.98,538.616,0.0
51886.0,STARLINK-3565,PAYLOAD,2022-09-17 22:35:29,15.08831434,0.0001709,53.2174,294.7603,60.3008,299.8154,-6.3148e-05,-1.293e-05,0.0,0 STARLINK-3565,1 51886U 22022AL  22260.94131737 -.00001293  00000-0 -63148-4 0  9996,2 51886  53.2174 294.7603 0001709  60.3008 299.8154 15.08831434 31714,6917.906999999997,95.438,540.9540000000002,538.589,0.0
51886.0,STARLINK-3565,PAYLOAD,2022-09-18 11:18:34,15.08835112,0.000167,53.2176,292.3816,63.9947,296.1217,1.0786e-05,-1.16e-06,0.0,0 STARLINK-3565,1 51886U 22022AL  22261.47123509 -.00000116  00000-0  10786-4 0  9995,2 51886  53.2176 292.3816 0001670  63.9947 296.1217 15.08835112 31799,6917.895,95.438,540.9159999999998,538.605,0.0
51886.0,STARLINK-3565,PAYLOAD,2022-09-19 09:33:58,15.08839127,0.0001773,53.2174,288.2188,59.7746,300.3421,0.00019491,2.815e-05,0.0,0 STARLINK-3565,1 51886U 22022AL  22262.39859112  .00002815  00000-0  19491-3 0  9991,2 51886  53.2174 288.2188 0001773  59.7746 300.3421 15.08839127 31938,6917.8830000000025,95.438,540.975,538.5219999999998,0.0
51886.0,STARLINK-3565,PAYLOAD,2022-09-19 20:41:39,15.08847009,0.0001796,53.2174,286.1373,59.3778,300.7391,0.00021536,3.142e-05,0.0,0 STARLINK-3565,1 51886U 22022AL  22262.86226564  .00003142  00000-0  21536-3 0  9999,2 51886  53.2174 286.1373 0001796  59.3778 300.7391 15.08847009 32004,6917.859,95.437,540.966,538.482,0.0
51886.0,STARLINK-3565,PAYLOAD,2022-09-20 07:49:22,15.08841618,0.0001805,53.2171,284.0553,58.6176,301.4993,0.000111,1.479e-05,0.0,0 STARLINK-3565,1 51886U 22022AL  22263.32595194  .00001479  00000-0  11100-3 0  9996,2 51886  53.2171 284.0553 0001805  58.6176 301.4993 15.08841618 32076,6917.875,95.437,540.989,538.492,0.0
51886.0,STARLINK-3565,PAYLOAD,2022-09-20 20:32:26,15.08847852,0.0001806,53.2173,281.6765,58.7409,301.376,9.1606e-05,1.17e-05,0.0,0 STARLINK-3565,1 51886U 22022AL  22263.85586656  .00001170  00000-0  91606-4 0  9995,2 51886  53.2173 281.6765 0001806  58.7409 301.3760 15.08847852 32153,6917.856,95.437,540.971,538.472,0.0
51886.0,STARLINK-3565,PAYLOAD,2022-09-21 02:53:59,15.0885001,0.0002023,53.2166,280.4871,47.7463,312.37,6.8482e-05,8.02e-06,0.0,0 STARLINK-3565,1 51886U 22022AL  22264.12082570  .00000802  00000-0  68482-4 0  9999,2 51886  53.2166 280.4871 0002023  47.7463 312.3700 15.08850010 32190,6917.85,95.437,541.114,538.315,0.0
51886.0,STARLINK-3565,PAYLOAD,2022-09-21 10:50:55,15.08842727,0.0002109999999999,53.2175,279.0022,44.6211,315.4951,-2.2504e-05,-6.46e-06,0.0,0 STARLINK-3565,1 51886U 22022AL  22264.45203171 -.00000646  00000-0 -22504-4 0  9990,2 51886  53.2175 279.0022 0002110  44.6211 315.4951 15.08842727 32240,6917.871999999999,95.437,541.197,538.2769999999998,0.0
51886.0,STARLINK-3565,PAYLOAD,2022-09-22 07:30:55,15.08845957,0.000174,53.2174,275.1346,56.4921,303.6237,7.2112e-05,8.599999999999999e-06,0.0,0 STARLINK-3565,1 51886U 22022AL  22265.31314389  .00000860  00000-0  72112-4 0  9996,2 51886  53.2174 275.1346 0001740  56.4921 303.6237 15.08845957 32370,6917.861999999999,95.437,540.931,538.523,0.0
